<?xml version="1.0" encoding="utf-8" ?>
<kml xmlns="http://www.opengis.net/kml/2.2">
<Document id="root_doc">
<Schema name="PRSKeys" id="PRSKeys">
	<SimpleField name="fid" type="float"></SimpleField>
	<SimpleField name="Id" type="int"></SimpleField>
	<SimpleField name="Codigo" type="string"></SimpleField>
	<SimpleField name="Nota" type="string"></SimpleField>
	<SimpleField name="Codigo-Exp" type="string"></SimpleField>
	<SimpleField name="Observaciones" type="string"></SimpleField>
	<SimpleField name="Clave" type="string"></SimpleField>
</Schema>
<Folder><name>PRSKeys</name>
  <Placemark>
	<name>P-X-1-1</name>
	<description>Entrada Islillas Norte</description>
	<ExtendedData><SchemaData schemaUrl="#PRSKeys">
		<SimpleData name="fid">1</SimpleData>
		<SimpleData name="Codigo">P-X-1-1</SimpleData>
		<SimpleData name="Nota">Entrada Islillas Norte</SimpleData>
		<SimpleData name="Codigo-Exp">Llave maestra Parque #1</SimpleData>
		<SimpleData name="Clave">P</SimpleData>
	</SchemaData></ExtendedData>
      <Point><coordinates>-3.49668069813721,40.4092661694728</coordinates></Point>
  </Placemark>
  <Placemark>
	<name>P-X-1-2</name>
	<description>Puente Islillas Sur</description>
	<ExtendedData><SchemaData schemaUrl="#PRSKeys">
		<SimpleData name="fid">2</SimpleData>
		<SimpleData name="Codigo">P-X-1-2</SimpleData>
		<SimpleData name="Nota">Puente Islillas Sur</SimpleData>
		<SimpleData name="Codigo-Exp">Llave maestra Parque #1</SimpleData>
		<SimpleData name="Clave">P</SimpleData>
	</SchemaData></ExtendedData>
      <Point><coordinates>-3.48919313860333,40.4103770304068</coordinates></Point>
  </Placemark>
  <Placemark>
	<name>P-X-1-3</name>
	<description>Acceso Lagunas de Velilla</description>
	<ExtendedData><SchemaData schemaUrl="#PRSKeys">
		<SimpleData name="fid">3</SimpleData>
		<SimpleData name="Codigo">P-X-1-3</SimpleData>
		<SimpleData name="Nota">Acceso Lagunas de Velilla</SimpleData>
		<SimpleData name="Codigo-Exp">Llave maestra Parque #1</SimpleData>
		<SimpleData name="Clave">P</SimpleData>
	</SchemaData></ExtendedData>
      <Point><coordinates>-3.4833749071812,40.3614494822035</coordinates></Point>
  </Placemark>
  <Placemark>
	<name>P-X-1-4</name>
	<description>Acceso Aldehuela desde M-301</description>
	<ExtendedData><SchemaData schemaUrl="#PRSKeys">
		<SimpleData name="fid">4</SimpleData>
		<SimpleData name="Codigo">P-X-1-4</SimpleData>
		<SimpleData name="Nota">Acceso Aldehuela desde M-301</SimpleData>
		<SimpleData name="Codigo-Exp">Llave maestra Parque #1</SimpleData>
		<SimpleData name="Clave">P</SimpleData>
	</SchemaData></ExtendedData>
      <Point><coordinates>-3.61603196783662,40.291031951272</coordinates></Point>
  </Placemark>
  <Placemark>
	<name>P-X-1-5</name>
	<description>Acceso camino de Bastante desde M-301</description>
	<ExtendedData><SchemaData schemaUrl="#PRSKeys">
		<SimpleData name="fid">5</SimpleData>
		<SimpleData name="Codigo">P-X-1-5</SimpleData>
		<SimpleData name="Nota">Acceso camino de Bastante desde M-301</SimpleData>
		<SimpleData name="Codigo-Exp">Llave maestra Parque #1</SimpleData>
		<SimpleData name="Clave">P</SimpleData>
	</SchemaData></ExtendedData>
      <Point><coordinates>-3.60255676968466,40.2752885407137</coordinates></Point>
  </Placemark>
  <Placemark>
	<name>P-L-1</name>
	<description>Acceso oficina servicio Parque</description>
	<ExtendedData><SchemaData schemaUrl="#PRSKeys">
		<SimpleData name="fid">6</SimpleData>
		<SimpleData name="Codigo">P-L-1</SimpleData>
		<SimpleData name="Nota">Acceso oficina servicio Parque</SimpleData>
		<SimpleData name="Codigo-Exp">Llave larga</SimpleData>
		<SimpleData name="Clave">P</SimpleData>
	</SchemaData></ExtendedData>
      <Point><coordinates>-3.51166324905386,40.3217834515326</coordinates></Point>
  </Placemark>
  <Placemark>
	<name>P-L-2</name>
	<description>Acceso CEA Campillo</description>
	<ExtendedData><SchemaData schemaUrl="#PRSKeys">
		<SimpleData name="fid">7</SimpleData>
		<SimpleData name="Codigo">P-L-2</SimpleData>
		<SimpleData name="Nota">Acceso CEA Campillo</SimpleData>
		<SimpleData name="Codigo-Exp">Llave larga</SimpleData>
		<SimpleData name="Clave">P</SimpleData>
	</SchemaData></ExtendedData>
      <Point><coordinates>-3.51171536284062,40.3212210722468</coordinates></Point>
  </Placemark>
  <Placemark>
	<name>P-L-3</name>
	<description>Acceso Soto de las Juntas</description>
	<ExtendedData><SchemaData schemaUrl="#PRSKeys">
		<SimpleData name="fid">8</SimpleData>
		<SimpleData name="Codigo">P-L-3</SimpleData>
		<SimpleData name="Nota">Acceso Soto de las Juntas</SimpleData>
		<SimpleData name="Codigo-Exp">Llave larga</SimpleData>
		<SimpleData name="Clave">P</SimpleData>
	</SchemaData></ExtendedData>
      <Point><coordinates>-3.52256593419334,40.3245939873545</coordinates></Point>
  </Placemark>
  <Placemark>
	<name>P-L-4</name>
	<description>Acceso Lagunas de Velilla, camino superior</description>
	<ExtendedData><SchemaData schemaUrl="#PRSKeys">
		<SimpleData name="fid">9</SimpleData>
		<SimpleData name="Codigo">P-L-4</SimpleData>
		<SimpleData name="Nota">Acceso Lagunas de Velilla, camino superior</SimpleData>
		<SimpleData name="Codigo-Exp">Llave larga</SimpleData>
		<SimpleData name="Clave">P</SimpleData>
	</SchemaData></ExtendedData>
      <Point><coordinates>-3.48322781450916,40.36141106268</coordinates></Point>
  </Placemark>
  <Placemark>
	<name>A-SFH-1</name>
	<description>Acceso camino del Sedano</description>
	<ExtendedData><SchemaData schemaUrl="#PRSKeys">
		<SimpleData name="fid">10</SimpleData>
		<SimpleData name="Codigo">A-SFH-1</SimpleData>
		<SimpleData name="Nota">Acceso camino del Sedano</SimpleData>
		<SimpleData name="Clave">A</SimpleData>
	</SchemaData></ExtendedData>
      <Point><coordinates>-3.53031572012721,40.4432872843322</coordinates></Point>
  </Placemark>
  <Placemark>
	<name>A-SFH-1</name>
	<description>Acceso Camino del Sedano</description>
	<ExtendedData><SchemaData schemaUrl="#PRSKeys">
		<SimpleData name="fid">11</SimpleData>
		<SimpleData name="Codigo">A-SFH-1</SimpleData>
		<SimpleData name="Nota">Acceso Camino del Sedano</SimpleData>
		<SimpleData name="Clave">A</SimpleData>
	</SchemaData></ExtendedData>
      <Point><coordinates>-3.52362026216556,40.443391041586</coordinates></Point>
  </Placemark>
  <Placemark>
	<name>P-X-1-6</name>
	<description>Acceso sur Altos del Piul</description>
	<ExtendedData><SchemaData schemaUrl="#PRSKeys">
		<SimpleData name="fid">12</SimpleData>
		<SimpleData name="Codigo">P-X-1-6</SimpleData>
		<SimpleData name="Nota">Acceso sur Altos del Piul</SimpleData>
		<SimpleData name="Codigo-Exp">Llave maestra Parque €1</SimpleData>
		<SimpleData name="Observaciones">Tiene doble candado, el otro es la maestra de Rivas</SimpleData>
		<SimpleData name="Clave">P</SimpleData>
	</SchemaData></ExtendedData>
      <Point><coordinates>-3.51346446727991,40.3221973012023</coordinates></Point>
  </Placemark>
  <Placemark>
	<name>A-RIV-1</name>
	<description>Acceso polideportivo Altos del Piul</description>
	<ExtendedData><SchemaData schemaUrl="#PRSKeys">
		<SimpleData name="fid">13</SimpleData>
		<SimpleData name="Codigo">A-RIV-1</SimpleData>
		<SimpleData name="Nota">Acceso polideportivo Altos del Piul</SimpleData>
		<SimpleData name="Codigo-Exp">Llave maestra de Rivas</SimpleData>
		<SimpleData name="Clave">A</SimpleData>
	</SchemaData></ExtendedData>
      <Point><coordinates>-3.50984451579782,40.3241076856861</coordinates></Point>
  </Placemark>
  <Placemark>
	<name>A-RIV-1</name>
	<description>Acceso norte Altos del Piul</description>
	<ExtendedData><SchemaData schemaUrl="#PRSKeys">
		<SimpleData name="fid">14</SimpleData>
		<SimpleData name="Codigo">A-RIV-1</SimpleData>
		<SimpleData name="Nota">Acceso norte Altos del Piul</SimpleData>
		<SimpleData name="Codigo-Exp">Llave maestra de Rivas</SimpleData>
		<SimpleData name="Clave">A</SimpleData>
	</SchemaData></ExtendedData>
      <Point><coordinates>-3.52184974347222,40.3781962027135</coordinates></Point>
  </Placemark>
  <Placemark>
	<name>A-RIV-1</name>
	<description>Acceso entorno Layesera 3M</description>
	<ExtendedData><SchemaData schemaUrl="#PRSKeys">
		<SimpleData name="fid">15</SimpleData>
		<SimpleData name="Codigo">A-RIV-1</SimpleData>
		<SimpleData name="Nota">Acceso entorno Layesera 3M</SimpleData>
		<SimpleData name="Codigo-Exp">Llave maestra de Rivas</SimpleData>
		<SimpleData name="Clave">A</SimpleData>
	</SchemaData></ExtendedData>
      <Point><coordinates>-3.51842563750326,40.3910646933714</coordinates></Point>
  </Placemark>
  <Placemark>
	<name>R-CEU-1</name>
	<description>Acceso Casa Eulogio</description>
	<ExtendedData><SchemaData schemaUrl="#PRSKeys">
		<SimpleData name="fid">16</SimpleData>
		<SimpleData name="Codigo">R-CEU-1</SimpleData>
		<SimpleData name="Nota">Acceso Casa Eulogio</SimpleData>
		<SimpleData name="Codigo-Exp">Particular de acceso a Casa Eulogio</SimpleData>
		<SimpleData name="Clave">R</SimpleData>
	</SchemaData></ExtendedData>
      <Point><coordinates>-3.55105630430787,40.322461800012</coordinates></Point>
  </Placemark>
  <Placemark>
	<name>R-CEU-1</name>
	<description>Acceso monte Casa Vieja, Casa Eulogio</description>
	<ExtendedData><SchemaData schemaUrl="#PRSKeys">
		<SimpleData name="fid">17</SimpleData>
		<SimpleData name="Codigo">R-CEU-1</SimpleData>
		<SimpleData name="Nota">Acceso monte Casa Vieja, Casa Eulogio</SimpleData>
		<SimpleData name="Codigo-Exp">Particular de acceso a Casa Eulogio</SimpleData>
		<SimpleData name="Clave">R</SimpleData>
	</SchemaData></ExtendedData>
      <Point><coordinates>-3.55163834970581,40.3188707045691</coordinates></Point>
  </Placemark>
  <Placemark>
	<name>R-SCU-1</name>
	<description>Acceso sur Soto de las Cuevas</description>
	<ExtendedData><SchemaData schemaUrl="#PRSKeys">
		<SimpleData name="fid">18</SimpleData>
		<SimpleData name="Codigo">R-SCU-1</SimpleData>
		<SimpleData name="Nota">Acceso sur Soto de las Cuevas</SimpleData>
		<SimpleData name="Codigo-Exp">Particular de acceso al Soto de las Cuevas</SimpleData>
		<SimpleData name="Clave">R</SimpleData>
	</SchemaData></ExtendedData>
      <Point><coordinates>-3.6012472572235,40.0918304800051</coordinates></Point>
  </Placemark>
  <Placemark>
	<name>P-SBA-1</name>
	<description>Acceso este ruta Soto Bayona</description>
	<ExtendedData><SchemaData schemaUrl="#PRSKeys">
		<SimpleData name="fid">19</SimpleData>
		<SimpleData name="Codigo">P-SBA-1</SimpleData>
		<SimpleData name="Nota">Acceso este ruta Soto Bayona</SimpleData>
		<SimpleData name="Codigo-Exp">NO llave</SimpleData>
		<SimpleData name="Observaciones">Barrera rota</SimpleData>
		<SimpleData name="Clave">P</SimpleData>
	</SchemaData></ExtendedData>
      <Point><coordinates>-3.57276862692757,40.1397324496291</coordinates></Point>
  </Placemark>
  <Placemark>
	<name>P-SBA-2</name>
	<description>Acceso oeste ruta  Soto Bayona</description>
	<ExtendedData><SchemaData schemaUrl="#PRSKeys">
		<SimpleData name="fid">20</SimpleData>
		<SimpleData name="Codigo">P-SBA-2</SimpleData>
		<SimpleData name="Nota">Acceso oeste ruta  Soto Bayona</SimpleData>
		<SimpleData name="Codigo-Exp">NO llave</SimpleData>
		<SimpleData name="Observaciones">Barrera rota, junto al aparcamiento</SimpleData>
		<SimpleData name="Clave">P</SimpleData>
	</SchemaData></ExtendedData>
      <Point><coordinates>-3.57351485779588,40.139559212809</coordinates></Point>
  </Placemark>
  <Placemark>
	<name>R-GOZ-1</name>
	<description>Acceso caserio Gozquez</description>
	<ExtendedData><SchemaData schemaUrl="#PRSKeys">
		<SimpleData name="fid">21</SimpleData>
		<SimpleData name="Codigo">R-GOZ-1</SimpleData>
		<SimpleData name="Nota">Acceso caserio Gozquez</SimpleData>
		<SimpleData name="Codigo-Exp">Llave particular de acceso al Caserio de Gozquez</SimpleData>
		<SimpleData name="Clave">R</SimpleData>
	</SchemaData></ExtendedData>
      <Point><coordinates>-3.60204802545269,40.2374128479451</coordinates></Point>
  </Placemark>
  <Placemark>
	<name>R-GOZ-2</name>
	<description>Acceso sur monte Casa Gozquez</description>
	<ExtendedData><SchemaData schemaUrl="#PRSKeys">
		<SimpleData name="fid">22</SimpleData>
		<SimpleData name="Codigo">R-GOZ-2</SimpleData>
		<SimpleData name="Nota">Acceso sur monte Casa Gozquez</SimpleData>
		<SimpleData name="Observaciones">No tenemos llave</SimpleData>
		<SimpleData name="Clave">R</SimpleData>
	</SchemaData></ExtendedData>
      <Point><coordinates>-3.57861551161093,40.2363219488634</coordinates></Point>
  </Placemark>
  <Placemark>
	<name>R-GOZ-3</name>
	<description>Barrera naranja antigua</description>
	<ExtendedData><SchemaData schemaUrl="#PRSKeys">
		<SimpleData name="fid">23</SimpleData>
		<SimpleData name="Codigo">R-GOZ-3</SimpleData>
		<SimpleData name="Nota">Barrera naranja antigua</SimpleData>
		<SimpleData name="Observaciones">Sin llave</SimpleData>
		<SimpleData name="Clave">R</SimpleData>
	</SchemaData></ExtendedData>
      <Point><coordinates>-3.58391492438441,40.2492831051614</coordinates></Point>
  </Placemark>
  <Placemark>
	<name>R-GOZ-4</name>
	<description>Barrera naranja antigua</description>
	<ExtendedData><SchemaData schemaUrl="#PRSKeys">
		<SimpleData name="fid">24</SimpleData>
		<SimpleData name="Codigo">R-GOZ-4</SimpleData>
		<SimpleData name="Nota">Barrera naranja antigua</SimpleData>
		<SimpleData name="Clave">R</SimpleData>
	</SchemaData></ExtendedData>
      <Point><coordinates>-3.59311596581697,40.2643302590852</coordinates></Point>
  </Placemark>
  <Placemark>
	<name>R-TOR-1</name>
	<description>Acceso sur Torrecilla</description>
	<ExtendedData><SchemaData schemaUrl="#PRSKeys">
		<SimpleData name="fid">25</SimpleData>
		<SimpleData name="Codigo">R-TOR-1</SimpleData>
		<SimpleData name="Nota">Acceso sur Torrecilla</SimpleData>
		<SimpleData name="Observaciones">No tenemos llave</SimpleData>
		<SimpleData name="Clave">R</SimpleData>
	</SchemaData></ExtendedData>
      <Point><coordinates>-3.59660476609978,40.2772804665991</coordinates></Point>
  </Placemark>
  <Placemark>
	<name>O-MAR-1</name>
	<description>Acceso norte Marañosa 1</description>
	<ExtendedData><SchemaData schemaUrl="#PRSKeys">
		<SimpleData name="fid">26</SimpleData>
		<SimpleData name="Codigo">O-MAR-1</SimpleData>
		<SimpleData name="Nota">Acceso norte Marañosa 1</SimpleData>
		<SimpleData name="Codigo-Exp">DEFENSA</SimpleData>
		<SimpleData name="Observaciones">No tenemos llave</SimpleData>
		<SimpleData name="Clave">O</SimpleData>
	</SchemaData></ExtendedData>
      <Point><coordinates>-3.5536055382484,40.2959340247235</coordinates></Point>
  </Placemark>
  <Placemark>
	<name>O-ESP-1</name>
	<description>Acceso sur al Espartal</description>
	<ExtendedData><SchemaData schemaUrl="#PRSKeys">
		<SimpleData name="fid">27</SimpleData>
		<SimpleData name="Codigo">O-ESP-1</SimpleData>
		<SimpleData name="Nota">Acceso sur al Espartal</SimpleData>
		<SimpleData name="Observaciones">No tenemos llave, se pedia acceso a AAFF</SimpleData>
		<SimpleData name="Clave">O</SimpleData>
	</SchemaData></ExtendedData>
      <Point><coordinates>-3.62058013912112,40.1742031834863</coordinates></Point>
  </Placemark>
  <Placemark>
	<name>R-BOY-1</name>
	<description>Acceso Boyeriza - Presa del Rey</description>
	<ExtendedData><SchemaData schemaUrl="#PRSKeys">
		<SimpleData name="fid">28</SimpleData>
		<SimpleData name="Codigo">R-BOY-1</SimpleData>
		<SimpleData name="Nota">Acceso Boyeriza - Presa del Rey</SimpleData>
		<SimpleData name="Clave">R</SimpleData>
	</SchemaData></ExtendedData>
      <Point><coordinates>-3.55938805410768,40.2597186654113</coordinates></Point>
  </Placemark>
  <Placemark>
	<name>R-PIU-1</name>
	<description>Acceso finca El Piul</description>
	<ExtendedData><SchemaData schemaUrl="#PRSKeys">
		<SimpleData name="fid">29</SimpleData>
		<SimpleData name="Codigo">R-PIU-1</SimpleData>
		<SimpleData name="Nota">Acceso finca El Piul</SimpleData>
		<SimpleData name="Observaciones">No tiene llave, se llama para acceder</SimpleData>
		<SimpleData name="Clave">R</SimpleData>
	</SchemaData></ExtendedData>
      <Point><coordinates>-3.48248271073047,40.3288104387536</coordinates></Point>
  </Placemark>
  <Placemark>
	<name>P-L-5</name>
	<description>Acceso Carrascal junto residencia</description>
	<ExtendedData><SchemaData schemaUrl="#PRSKeys">
		<SimpleData name="fid">30</SimpleData>
		<SimpleData name="Codigo">P-L-5</SimpleData>
		<SimpleData name="Nota">Acceso Carrascal junto residencia</SimpleData>
		<SimpleData name="Codigo-Exp">Llave larga</SimpleData>
		<SimpleData name="Clave">P</SimpleData>
	</SchemaData></ExtendedData>
      <Point><coordinates>-3.43910461132467,40.2891661153393</coordinates></Point>
  </Placemark>
  <Placemark>
	<name>P-L-6</name>
	<description>Acceso oeste Carrascal</description>
	<ExtendedData><SchemaData schemaUrl="#PRSKeys">
		<SimpleData name="fid">31</SimpleData>
		<SimpleData name="Codigo">P-L-6</SimpleData>
		<SimpleData name="Nota">Acceso oeste Carrascal</SimpleData>
		<SimpleData name="Codigo-Exp">Llave larga</SimpleData>
		<SimpleData name="Clave">P</SimpleData>
	</SchemaData></ExtendedData>
      <Point><coordinates>-3.44161007749501,40.2878714775979</coordinates></Point>
  </Placemark>
  <Placemark>
	<name>P-FVA-1</name>
	<description>Acceso charca Fuente del Valle</description>
	<ExtendedData><SchemaData schemaUrl="#PRSKeys">
		<SimpleData name="fid">32</SimpleData>
		<SimpleData name="Codigo">P-FVA-1</SimpleData>
		<SimpleData name="Nota">Acceso charca Fuente del Valle</SimpleData>
		<SimpleData name="Observaciones">Mantenimiento charca</SimpleData>
		<SimpleData name="Clave">P</SimpleData>
	</SchemaData></ExtendedData>
      <Point><coordinates>-3.43401388801605,40.2695674293574</coordinates></Point>
  </Placemark>
  <Placemark>
	<name>O-CAM-1</name>
	<description>Acceso CEA Campillo</description>
	<ExtendedData><SchemaData schemaUrl="#PRSKeys">
		<SimpleData name="fid">33</SimpleData>
		<SimpleData name="Codigo">O-CAM-1</SimpleData>
		<SimpleData name="Nota">Acceso CEA Campillo</SimpleData>
		<SimpleData name="Clave">O</SimpleData>
	</SchemaData></ExtendedData>
      <Point><coordinates>-3.4975614405591,40.3189338657602</coordinates></Point>
  </Placemark>
  <Placemark>
	<name>R-REG-1</name>
	<description>Acceso finca El Regajal</description>
	<ExtendedData><SchemaData schemaUrl="#PRSKeys">
		<SimpleData name="fid">34</SimpleData>
		<SimpleData name="Id">103</SimpleData>
		<SimpleData name="Codigo">R-REG-1</SimpleData>
		<SimpleData name="Nota">Acceso finca El Regajal</SimpleData>
		<SimpleData name="Observaciones">Hay que llamar para acceder</SimpleData>
		<SimpleData name="Clave">R</SimpleData>
	</SchemaData></ExtendedData>
      <Point><coordinates>-3.60078942398423,40.0045044062802</coordinates></Point>
  </Placemark>
  <Placemark>
	<name>O-SOT-1</name>
	<description>Acceso Sotomayor</description>
	<ExtendedData><SchemaData schemaUrl="#PRSKeys">
		<SimpleData name="fid">35</SimpleData>
		<SimpleData name="Id">100</SimpleData>
		<SimpleData name="Codigo">O-SOT-1</SimpleData>
		<SimpleData name="Nota">Acceso Sotomayor</SimpleData>
		<SimpleData name="Codigo-Exp">IMIDRA</SimpleData>
		<SimpleData name="Observaciones">IMIDRA Junto a la Casa de la Monta</SimpleData>
		<SimpleData name="Clave">O</SimpleData>
	</SchemaData></ExtendedData>
      <Point><coordinates>-3.55400933134439,40.0423078891748</coordinates></Point>
  </Placemark>
  <Placemark>
	<name>P-L-8</name>
	<description>Acceso Mar de Ontígola por carretera Ontígola</description>
	<ExtendedData><SchemaData schemaUrl="#PRSKeys">
		<SimpleData name="fid">36</SimpleData>
		<SimpleData name="Id">102</SimpleData>
		<SimpleData name="Codigo">P-L-8</SimpleData>
		<SimpleData name="Nota">Acceso Mar de Ontígola por carretera Ontígola</SimpleData>
		<SimpleData name="Codigo-Exp">Llave larga</SimpleData>
		<SimpleData name="Clave">P</SimpleData>
	</SchemaData></ExtendedData>
      <Point><coordinates>-3.5976712735408,40.0190802015315</coordinates></Point>
  </Placemark>
  <Placemark>
	<name>P-L-7</name>
	<description>Acceso Mar de Ontígola por Mar Chico</description>
	<ExtendedData><SchemaData schemaUrl="#PRSKeys">
		<SimpleData name="fid">37</SimpleData>
		<SimpleData name="Id">101</SimpleData>
		<SimpleData name="Codigo">P-L-7</SimpleData>
		<SimpleData name="Nota">Acceso Mar de Ontígola por Mar Chico</SimpleData>
		<SimpleData name="Codigo-Exp">Llave larga</SimpleData>
		<SimpleData name="Clave">P</SimpleData>
	</SchemaData></ExtendedData>
      <Point><coordinates>-3.60417887505139,40.0208574021842</coordinates></Point>
  </Placemark>
  <Placemark>
	<name>A-AMI-1</name>
	<description>Acceso arroyo de los Migueles</description>
	<ExtendedData><SchemaData schemaUrl="#PRSKeys">
		<SimpleData name="fid">38</SimpleData>
		<SimpleData name="Id">104</SimpleData>
		<SimpleData name="Codigo">A-RIV-1</SimpleData>
		<SimpleData name="Nota">Acceso arroyo de los Migueles</SimpleData>
		<SimpleData name="Clave">A</SimpleData>
	</SchemaData></ExtendedData>
      <Point><coordinates>-3.5374142191959,40.3330216665361</coordinates></Point>
  </Placemark>
  <Placemark>
	<name>R-ALD-1</name>
	<description>Acceso este Aldehuela</description>
	<ExtendedData><SchemaData schemaUrl="#PRSKeys">
		<SimpleData name="fid">39</SimpleData>
		<SimpleData name="Id">200</SimpleData>
		<SimpleData name="Codigo">R-ALD-1</SimpleData>
		<SimpleData name="Nota">Acceso este Aldehuela</SimpleData>
		<SimpleData name="Observaciones">Posible Kirkpatrick</SimpleData>
		<SimpleData name="Clave">R</SimpleData>
	</SchemaData></ExtendedData>
      <Point><coordinates>-3.55985174863181,40.3144007082262</coordinates></Point>
  </Placemark>
  <Placemark>
	<name>D-GET-2</name>
	<description>Camino de Vinateros</description>
	<ExtendedData><SchemaData schemaUrl="#PRSKeys">
		<SimpleData name="fid">40</SimpleData>
		<SimpleData name="Id">201</SimpleData>
		<SimpleData name="Codigo">D-GET-2</SimpleData>
		<SimpleData name="Nota">Camino de Vinateros</SimpleData>
		<SimpleData name="Observaciones">Parte 20260710. Tiene llave policia local. Nosotros no.</SimpleData>
		<SimpleData name="Clave">D</SimpleData>
	</SchemaData></ExtendedData>
      <Point><coordinates>-3.6219069213076,40.3101563022954</coordinates></Point>
  </Placemark>
  <Placemark>
	<name>D-GET-1</name>
	<description>Camino de Vinateros</description>
	<ExtendedData><SchemaData schemaUrl="#PRSKeys">
		<SimpleData name="fid">41</SimpleData>
		<SimpleData name="Id">202</SimpleData>
		<SimpleData name="Codigo">D-GET-1</SimpleData>
		<SimpleData name="Nota">Camino de Vinateros</SimpleData>
		<SimpleData name="Observaciones">Parte 20260710. Tiene llave policia local. Nosotros no.</SimpleData>
		<SimpleData name="Clave">D</SimpleData>
	</SchemaData></ExtendedData>
      <Point><coordinates>-3.61626666041601,40.3175740518294</coordinates></Point>
  </Placemark>
  <Placemark>
	<name>O-ESP-2</name>
	<description>Acceso norte El Espartal</description>
	<ExtendedData><SchemaData schemaUrl="#PRSKeys">
		<SimpleData name="fid">42</SimpleData>
		<SimpleData name="Codigo">O-ESP-2</SimpleData>
		<SimpleData name="Nota">Acceso norte El Espartal</SimpleData>
		<SimpleData name="Observaciones">Pendiente confirmar, vista FA</SimpleData>
		<SimpleData name="Clave">O</SimpleData>
	</SchemaData></ExtendedData>
      <Point><coordinates>-3.62389998281837,40.2001100796042</coordinates></Point>
  </Placemark>
  <Placemark>
	<name>R-POR-1</name>
	<description>Acceso finca El Porcal</description>
	<ExtendedData><SchemaData schemaUrl="#PRSKeys">
		<SimpleData name="fid">43</SimpleData>
		<SimpleData name="Codigo">R-POR-1</SimpleData>
		<SimpleData name="Nota">Acceso finca El Porcal</SimpleData>
		<SimpleData name="Observaciones">No tiene llave, abren con un mando</SimpleData>
		<SimpleData name="Clave">R</SimpleData>
	</SchemaData></ExtendedData>
      <Point><coordinates>-3.51015514389888,40.3094485261731</coordinates></Point>
  </Placemark>
  <Placemark>
	<name>R-SPI-1</name>
	<description>Acceso Sotillo y Picón</description>
	<ExtendedData><SchemaData schemaUrl="#PRSKeys">
		<SimpleData name="fid">44</SimpleData>
		<SimpleData name="Codigo">R-SPI-1</SimpleData>
		<SimpleData name="Nota">Acceso Sotillo y Picón</SimpleData>
		<SimpleData name="Codigo-Exp">Sotillo y Picon</SimpleData>
		<SimpleData name="Observaciones">Finca propiedad de Corsini. No tenemos llave</SimpleData>
		<SimpleData name="Clave">R</SimpleData>
	</SchemaData></ExtendedData>
      <Point><coordinates>-3.50042458783517,40.3690410960104</coordinates></Point>
  </Placemark>
  <Placemark>
	<name>P-L-9</name>
	<description>Acceso Las Islillas</description>
	<ExtendedData><SchemaData schemaUrl="#PRSKeys">
		<SimpleData name="fid">45</SimpleData>
		<SimpleData name="Codigo">P-L-9</SimpleData>
		<SimpleData name="Nota">Acceso Las Islillas</SimpleData>
		<SimpleData name="Codigo-Exp">Llave larga</SimpleData>
		<SimpleData name="Observaciones">Acceso al área recreativa de Las Islillas</SimpleData>
		<SimpleData name="Clave">P</SimpleData>
	</SchemaData></ExtendedData>
      <Point><coordinates>-3.49554089751918,40.4053957947432</coordinates></Point>
  </Placemark>
  <Placemark>
	<name>P-SMV-1</name>
	<description>Acceso área recreativa San Martin 1</description>
	<ExtendedData><SchemaData schemaUrl="#PRSKeys">
		<SimpleData name="fid">46</SimpleData>
		<SimpleData name="Codigo">P-SMV-1</SimpleData>
		<SimpleData name="Nota">Acceso área recreativa San Martin 1</SimpleData>
		<SimpleData name="Observaciones">Acceso al área más próxima al pueblo, JSG?</SimpleData>
		<SimpleData name="Clave">P</SimpleData>
	</SchemaData></ExtendedData>
      <Point><coordinates>-3.56396639403365,40.2090549501028</coordinates></Point>
  </Placemark>
  <Placemark>
	<name>P-SMV-2</name>
	<description>Acceso ex-área recreativa San Martín</description>
	<ExtendedData><SchemaData schemaUrl="#PRSKeys">
		<SimpleData name="fid">47</SimpleData>
		<SimpleData name="Codigo">P-SMV-2</SimpleData>
		<SimpleData name="Nota">Acceso ex-área recreativa San Martín</SimpleData>
		<SimpleData name="Observaciones">Preguntar JSG</SimpleData>
		<SimpleData name="Clave">P</SimpleData>
	</SchemaData></ExtendedData>
      <Point><coordinates>-3.54956911369363,40.2206531039939</coordinates></Point>
  </Placemark>
  <Placemark>
	<name>P-SMV-3</name>
	<description>Acceso área recreativa San Martín 3, Puente Caido</description>
	<ExtendedData><SchemaData schemaUrl="#PRSKeys">
		<SimpleData name="fid">48</SimpleData>
		<SimpleData name="Codigo">P-SMV-3</SimpleData>
		<SimpleData name="Nota">Acceso área recreativa San Martín 3, Puente Caido</SimpleData>
		<SimpleData name="Observaciones">Preguntar JSG</SimpleData>
		<SimpleData name="Clave">P</SimpleData>
	</SchemaData></ExtendedData>
      <Point><coordinates>-3.54351380389313,40.2298078429827</coordinates></Point>
  </Placemark>
  <Placemark>
	<name>D-CCJ-1</name>
	<description>Cerros Concejiles</description>
	<ExtendedData><SchemaData schemaUrl="#PRSKeys">
		<SimpleData name="fid">49</SimpleData>
		<SimpleData name="Id">203</SimpleData>
		<SimpleData name="Codigo">D-CCJ-1</SimpleData>
		<SimpleData name="Nota">Cerros Concejiles</SimpleData>
		<SimpleData name="Observaciones">Parte 20230713</SimpleData>
		<SimpleData name="Clave">D</SimpleData>
	</SchemaData></ExtendedData>
      <Point><coordinates>-3.48958244176532,40.2808180735094</coordinates></Point>
  </Placemark>
  <Placemark>
	<name>R-CEU-1</name>
	<description>Casa Eulogio Aceeso camino derrumbe</description>
	<ExtendedData><SchemaData schemaUrl="#PRSKeys">
		<SimpleData name="fid">50</SimpleData>
		<SimpleData name="Codigo">R-CEU-1</SimpleData>
		<SimpleData name="Nota">Aceeso camino derrumbe</SimpleData>
		<SimpleData name="Observaciones">Es la misma llave que 1 y 2</SimpleData>
		<SimpleData name="Clave">R</SimpleData>
	</SchemaData></ExtendedData>
      <Point><coordinates>-3.54852378431861,40.321969726736</coordinates></Point>
  </Placemark>
  <Placemark>
	<name>O-CHE-1</name>
	<description>Entrada recinto Caserio Henares</description>
	<ExtendedData><SchemaData schemaUrl="#PRSKeys">
		<SimpleData name="fid">51</SimpleData>
		<SimpleData name="Codigo">O-CHE-1</SimpleData>
		<SimpleData name="Nota">Entrada recinto Caserio Henares</SimpleData>
		<SimpleData name="Observaciones">Barrera de entrada</SimpleData>
		<SimpleData name="Clave">O</SimpleData>
	</SchemaData></ExtendedData>
      <Point><coordinates>-3.4906843770577,40.4231400178118</coordinates></Point>
  </Placemark>
  <Placemark>
	<name>O-CHE-2</name>
	<description>Acceso finca, cadena</description>
	<ExtendedData><SchemaData schemaUrl="#PRSKeys">
		<SimpleData name="fid">52</SimpleData>
		<SimpleData name="Codigo">O-CHE-2</SimpleData>
		<SimpleData name="Nota">Acceso finca, cadena</SimpleData>
		<SimpleData name="Observaciones">Cadena de acceso a la finca, no sabemos si es la misma llave que 1</SimpleData>
		<SimpleData name="Clave">O</SimpleData>
	</SchemaData></ExtendedData>
      <Point><coordinates>-3.48966959952195,40.4229706467106</coordinates></Point>
  </Placemark>
  <Placemark>
	<name>O-CHE-3</name>
	<description>Acceso Caserio desde Aldovea</description>
	<ExtendedData><SchemaData schemaUrl="#PRSKeys">
		<SimpleData name="fid">53</SimpleData>
		<SimpleData name="Codigo">O-CHE-3</SimpleData>
		<SimpleData name="Nota">Acceso Caserio desde Aldovea</SimpleData>
		<SimpleData name="Observaciones">No es segura la localizacion</SimpleData>
		<SimpleData name="Clave">O</SimpleData>
	</SchemaData></ExtendedData>
      <Point><coordinates>-3.47372859453674,40.4304799820103</coordinates></Point>
  </Placemark>
  <Placemark>
	<name>R-CGO-1</name>
	<description>Acceso casas Cerro Gordo</description>
	<ExtendedData><SchemaData schemaUrl="#PRSKeys">
		<SimpleData name="fid">54</SimpleData>
		<SimpleData name="Codigo">R-CGO-1</SimpleData>
		<SimpleData name="Nota">Acceso casas Cerro Gordo</SimpleData>
		<SimpleData name="Clave">R</SimpleData>
	</SchemaData></ExtendedData>
      <Point><coordinates>-3.478054500992,40.4224660056124</coordinates></Point>
  </Placemark>
  <Placemark>
	<name>R-CGO-2</name>
	<description>Acceso Cerro Gordo por la ribera</description>
	<ExtendedData><SchemaData schemaUrl="#PRSKeys">
		<SimpleData name="fid">55</SimpleData>
		<SimpleData name="Codigo">R-CGO-2</SimpleData>
		<SimpleData name="Nota">Acceso Cerro Gordo por la ribera</SimpleData>
		<SimpleData name="Clave">R</SimpleData>
	</SchemaData></ExtendedData>
      <Point><coordinates>-3.47776392775836,40.4196234348966</coordinates></Point>
  </Placemark>
  <Placemark>
	<name>R-SFE-1</name>
	<description>Acceso a San Felix desde el Cerro del Grajo</description>
	<ExtendedData><SchemaData schemaUrl="#PRSKeys">
		<SimpleData name="fid">56</SimpleData>
		<SimpleData name="Codigo">R-SFE-1</SimpleData>
		<SimpleData name="Nota">Acceso a San Felix desde el Cerro del Grajo</SimpleData>
		<SimpleData name="Clave">R</SimpleData>
	</SchemaData></ExtendedData>
      <Point><coordinates>-3.63558943647197,40.2838019845141</coordinates></Point>
  </Placemark>
  <Placemark>
	<name>O-MAR-3</name>
	<description>Acceso Marañosa desde Jarama</description>
	<ExtendedData><SchemaData schemaUrl="#PRSKeys">
		<SimpleData name="fid">57</SimpleData>
		<SimpleData name="Codigo">O-MAR-3</SimpleData>
		<SimpleData name="Nota">Acceso Marañosa desde Jarama</SimpleData>
		<SimpleData name="Observaciones">Acceso por la casa de Cesar</SimpleData>
		<SimpleData name="Clave">O</SimpleData>
	</SchemaData></ExtendedData>
      <Point><coordinates>-3.5572877229946,40.2771519719352</coordinates></Point>
  </Placemark>
  <Placemark>
	<name>O-MAR-2</name>
	<description>Acceso Marañosa desde Casa Eulogio</description>
	<ExtendedData><SchemaData schemaUrl="#PRSKeys">
		<SimpleData name="fid">58</SimpleData>
		<SimpleData name="Codigo">O-MAR-2</SimpleData>
		<SimpleData name="Nota">Acceso Marañosa desde Casa Eulogio</SimpleData>
		<SimpleData name="Clave">O</SimpleData>
	</SchemaData></ExtendedData>
      <Point><coordinates>-3.56234829994385,40.291876205879</coordinates></Point>
  </Placemark>
  <Placemark>
	<name>R-CON-1</name>
	<description>Acceso finca el Congosto</description>
	<ExtendedData><SchemaData schemaUrl="#PRSKeys">
		<SimpleData name="fid">59</SimpleData>
		<SimpleData name="Codigo">R-CON-1</SimpleData>
		<SimpleData name="Nota">Acceso finca el Congosto</SimpleData>
		<SimpleData name="Clave">R</SimpleData>
	</SchemaData></ExtendedData>
      <Point><coordinates>-3.56310611549315,40.3220629494574</coordinates></Point>
  </Placemark>
  <Placemark>
	<name>R-POR-2</name>
	<description>Acceso El Porcal desde Presa del Rey</description>
	<ExtendedData><SchemaData schemaUrl="#PRSKeys">
		<SimpleData name="fid">60</SimpleData>
		<SimpleData name="Codigo">R-POR-2</SimpleData>
		<SimpleData name="Nota">Acceso El Porcal desde Presa del Rey</SimpleData>
		<SimpleData name="Clave">R</SimpleData>
	</SchemaData></ExtendedData>
      <Point><coordinates>-3.54169687166649,40.2989921431703</coordinates></Point>
  </Placemark>
  <Placemark>
	<name>O-REY-1</name>
	<description>Acceso a la Presa del Rey</description>
	<ExtendedData><SchemaData schemaUrl="#PRSKeys">
		<SimpleData name="fid">61</SimpleData>
		<SimpleData name="Codigo">O-REY-1</SimpleData>
		<SimpleData name="Nota">Acceso a la Presa del Rey</SimpleData>
		<SimpleData name="Observaciones">La llave es de CHT</SimpleData>
		<SimpleData name="Clave">O</SimpleData>
	</SchemaData></ExtendedData>
      <Point><coordinates>-3.54310038574588,40.298742628608</coordinates></Point>
  </Placemark>
  <Placemark>
	<name>R-RVE-1</name>
	<description>Acceso al Rincon Verde</description>
	<ExtendedData><SchemaData schemaUrl="#PRSKeys">
		<SimpleData name="fid">62</SimpleData>
		<SimpleData name="Codigo">R-RVE-1</SimpleData>
		<SimpleData name="Nota">Acceso al Rincon Verde</SimpleData>
		<SimpleData name="Clave">R</SimpleData>
	</SchemaData></ExtendedData>
      <Point><coordinates>-3.59198380836069,40.2648893625268</coordinates></Point>
  </Placemark>
  <Placemark>
	<name>R-ALH-1</name>
	<description>Acceso a La Aldehuela</description>
	<ExtendedData><SchemaData schemaUrl="#PRSKeys">
		<SimpleData name="fid">63</SimpleData>
		<SimpleData name="Codigo">R-ALD-2</SimpleData>
		<SimpleData name="Nota">Acceso a La Aldehuela</SimpleData>
		<SimpleData name="Clave">R</SimpleData>
	</SchemaData></ExtendedData>
      <Point><coordinates>-3.59324933784554,40.3000413246822</coordinates></Point>
  </Placemark>
  <Placemark>
	<name>R-PRE-1</name>
	<description>Acceso a Preresa</description>
	<ExtendedData><SchemaData schemaUrl="#PRSKeys">
		<SimpleData name="fid">64</SimpleData>
		<SimpleData name="Codigo">R-PRE-1</SimpleData>
		<SimpleData name="Nota">Acceso a Preresa</SimpleData>
		<SimpleData name="Clave">R</SimpleData>
	</SchemaData></ExtendedData>
      <Point><coordinates>-3.59365745324906,40.3024685730394</coordinates></Point>
  </Placemark>
  <Placemark>
	<name>R-ALH-2</name>
	<description>Acceso Aldehuela prados Manzanares</description>
	<ExtendedData><SchemaData schemaUrl="#PRSKeys">
		<SimpleData name="fid">65</SimpleData>
		<SimpleData name="Codigo">R-ALD-3</SimpleData>
		<SimpleData name="Nota">Acceso Aldehuela prados Manzanares</SimpleData>
		<SimpleData name="Clave">R</SimpleData>
	</SchemaData></ExtendedData>
      <Point><coordinates>-3.59763988235951,40.3041470093985</coordinates></Point>
  </Placemark>
  <Placemark>
	<name>D-PLA-3</name>
	<description>Paseo de los Plátanos</description>
	<ExtendedData><SchemaData schemaUrl="#PRSKeys">
		<SimpleData name="fid">66</SimpleData>
		<SimpleData name="Id">207</SimpleData>
		<SimpleData name="Codigo">D-PLA-3</SimpleData>
		<SimpleData name="Nota">Paseo de los Plátanos</SimpleData>
		<SimpleData name="Observaciones">Parte 20260722 - Atada con cable</SimpleData>
		<SimpleData name="Clave">D</SimpleData>
	</SchemaData></ExtendedData>
      <Point><coordinates>-3.50546101088611,40.4193473169336</coordinates></Point>
  </Placemark>
  <Placemark>
	<name>D-PLA-1</name>
	<description>Paseo de los Plátanos</description>
	<ExtendedData><SchemaData schemaUrl="#PRSKeys">
		<SimpleData name="fid">67</SimpleData>
		<SimpleData name="Id">205</SimpleData>
		<SimpleData name="Codigo">D-PLA-1</SimpleData>
		<SimpleData name="Nota">Paseo de los Plátanos</SimpleData>
		<SimpleData name="Observaciones">Parte 20260722 - Sin candado</SimpleData>
		<SimpleData name="Clave">D</SimpleData>
	</SchemaData></ExtendedData>
      <Point><coordinates>-3.5131252080596,40.4134486357586</coordinates></Point>
  </Placemark>
  <Placemark>
	<name>D-PLA-2</name>
	<description>Paseo de los Plátanos</description>
	<ExtendedData><SchemaData schemaUrl="#PRSKeys">
		<SimpleData name="fid">68</SimpleData>
		<SimpleData name="Id">206</SimpleData>
		<SimpleData name="Codigo">D-PLA-2</SimpleData>
		<SimpleData name="Nota">Paseo de los Plátanos</SimpleData>
		<SimpleData name="Observaciones">Parte 20260722 - Sin candado</SimpleData>
		<SimpleData name="Clave">D</SimpleData>
	</SchemaData></ExtendedData>
      <Point><coordinates>-3.51350215620317,40.4134199349565</coordinates></Point>
  </Placemark>
  <Placemark>
	<name>A-RIVI-1</name>
	<description>Cortados El Piul</description>
	<ExtendedData><SchemaData schemaUrl="#PRSKeys">
		<SimpleData name="fid">69</SimpleData>
		<SimpleData name="Id">204</SimpleData>
		<SimpleData name="Codigo">A-RIV-1</SimpleData>
		<SimpleData name="Nota">Cortados El Piul</SimpleData>
		<SimpleData name="Observaciones">Parte 20260723</SimpleData>
		<SimpleData name="Clave">A</SimpleData>
	</SchemaData></ExtendedData>
      <Point><coordinates>-3.50970782976663,40.3572737244594</coordinates></Point>
  </Placemark>
  <Placemark>
	<name>R-MAP-1</name>
	<description>Acceso La Marañosa-Pingarrón</description>
	<ExtendedData><SchemaData schemaUrl="#PRSKeys">
		<SimpleData name="fid">70</SimpleData>
		<SimpleData name="Id">209</SimpleData>
		<SimpleData name="Codigo">R-MAP-1</SimpleData>
		<SimpleData name="Nota">Acceso La Marañosa-Pingarrón</SimpleData>
		<SimpleData name="Observaciones">Parte 20260728 - Dos barreras juntas abiertas</SimpleData>
		<SimpleData name="Clave">R</SimpleData>
	</SchemaData></ExtendedData>
      <Point><coordinates>-3.51437518408096,40.2072211528663</coordinates></Point>
  </Placemark>
  <Placemark>
	<name>R-VRO-1</name>
	<description>Acceso Valrromeroso</description>
	<ExtendedData><SchemaData schemaUrl="#PRSKeys">
		<SimpleData name="fid">71</SimpleData>
		<SimpleData name="Id">210</SimpleData>
		<SimpleData name="Codigo">R-VRO-1</SimpleData>
		<SimpleData name="Nota">Acceso Valrromeroso</SimpleData>
		<SimpleData name="Observaciones">Parte 20260728 - Barrera con candado, acceso zona urbanizada</SimpleData>
		<SimpleData name="Clave">R</SimpleData>
	</SchemaData></ExtendedData>
      <Point><coordinates>-3.52986614580562,40.192592048037</coordinates></Point>
  </Placemark>
  <Placemark>
	<name>R-VED-2</name>
	<description>Acceso El Vedadillo</description>
	<ExtendedData><SchemaData schemaUrl="#PRSKeys">
		<SimpleData name="fid">72</SimpleData>
		<SimpleData name="Id">211</SimpleData>
		<SimpleData name="Codigo">R-VED-2</SimpleData>
		<SimpleData name="Nota">Acceso El Vedadillo</SimpleData>
		<SimpleData name="Observaciones">Parte 20260728 - Puerta con candado, no es el principal</SimpleData>
		<SimpleData name="Clave">R</SimpleData>
	</SchemaData></ExtendedData>
      <Point><coordinates>-3.55427773429285,40.1592688824727</coordinates></Point>
  </Placemark>
  <Placemark>
	<name>R-VED-1</name>
	<description>Acceso El Vedadillo</description>
	<ExtendedData><SchemaData schemaUrl="#PRSKeys">
		<SimpleData name="fid">73</SimpleData>
		<SimpleData name="Id">212</SimpleData>
		<SimpleData name="Codigo">R-VED-1</SimpleData>
		<SimpleData name="Nota">Acceso El Vedadillo</SimpleData>
		<SimpleData name="Observaciones">Parte 20260728 - Puerta con candado</SimpleData>
		<SimpleData name="Clave">R</SimpleData>
	</SchemaData></ExtendedData>
      <Point><coordinates>-3.552121813486,40.1583962534135</coordinates></Point>
  </Placemark>
  <Placemark>
	<name>R-SPI-2</name>
	<description>Acceso sur Picón</description>
	<ExtendedData><SchemaData schemaUrl="#PRSKeys">
		<SimpleData name="fid">74</SimpleData>
		<SimpleData name="Id">208</SimpleData>
		<SimpleData name="Codigo">R-SPI-2</SimpleData>
		<SimpleData name="Nota">Acceso sur Picón</SimpleData>
		<SimpleData name="Observaciones">Parte 20260727 - No hay candado</SimpleData>
		<SimpleData name="Clave">R</SimpleData>
	</SchemaData></ExtendedData>
      <Point><coordinates>-3.49978820311361,40.3631549669624</coordinates></Point>
  </Placemark>
  <Placemark>
	<name>R-VPI-2</name>
	<description>Vega del Pingarrón - Marañosa</description>
	<ExtendedData><SchemaData schemaUrl="#PRSKeys">
		<SimpleData name="fid">75</SimpleData>
		<SimpleData name="Id">215</SimpleData>
		<SimpleData name="Codigo">R-VPI-2</SimpleData>
		<SimpleData name="Nota">Vega del Pingarrón - Marañosa</SimpleData>
		<SimpleData name="Observaciones">Parte 20260731 - Portones con cerradura</SimpleData>
		<SimpleData name="Clave">R</SimpleData>
	</SchemaData></ExtendedData>
      <Point><coordinates>-3.54793697272008,40.2089230897704</coordinates></Point>
  </Placemark>
  <Placemark>
	<name>R-VED-3</name>
	<description>El Vedadillo</description>
	<ExtendedData><SchemaData schemaUrl="#PRSKeys">
		<SimpleData name="fid">76</SimpleData>
		<SimpleData name="Id">216</SimpleData>
		<SimpleData name="Codigo">R-VED-3</SimpleData>
		<SimpleData name="Nota">El Vedadillo</SimpleData>
		<SimpleData name="Observaciones">Parte 20260731 - Cable con candado, camino de acceso a varias fincas</SimpleData>
		<SimpleData name="Clave">R</SimpleData>
	</SchemaData></ExtendedData>
      <Point><coordinates>-3.55417214671565,40.1679455131963</coordinates></Point>
  </Placemark>
  <Placemark>
	<name>R-MCO-1</name>
	<description>Minas del Consuelo</description>
	<ExtendedData><SchemaData schemaUrl="#PRSKeys">
		<SimpleData name="fid">77</SimpleData>
		<SimpleData name="Id">213</SimpleData>
		<SimpleData name="Codigo">R-MCO-1</SimpleData>
		<SimpleData name="Nota">Minas del Consuelo</SimpleData>
		<SimpleData name="Observaciones">Parte 20260731 - Cable con candado</SimpleData>
		<SimpleData name="Clave">R</SimpleData>
	</SchemaData></ExtendedData>
      <Point><coordinates>-3.54839723430588,40.1931273976941</coordinates></Point>
  </Placemark>
  <Placemark>
	<name>R-VPI-1</name>
	<description>Vega del Pingarrón</description>
	<ExtendedData><SchemaData schemaUrl="#PRSKeys">
		<SimpleData name="fid">78</SimpleData>
		<SimpleData name="Id">214</SimpleData>
		<SimpleData name="Codigo">R-VPI-1</SimpleData>
		<SimpleData name="Nota">Vega del Pingarrón</SimpleData>
		<SimpleData name="Observaciones">Parte 20260731 - Portones metálicos</SimpleData>
		<SimpleData name="Clave">R</SimpleData>
	</SchemaData></ExtendedData>
      <Point><coordinates>-3.55393964753651,40.2072277794227</coordinates></Point>
  </Placemark>
  <Placemark>
	<name>R-ALD-4</name>
	<description>Camino Aldehuela</description>
	<ExtendedData><SchemaData schemaUrl="#PRSKeys">
		<SimpleData name="fid">79</SimpleData>
		<SimpleData name="Id">221</SimpleData>
		<SimpleData name="Codigo">R-ALD-4</SimpleData>
		<SimpleData name="Nota">Camino Aldehuela</SimpleData>
		<SimpleData name="Observaciones">Parte 20260802 - Cadena, una con candado</SimpleData>
		<SimpleData name="Clave">R</SimpleData>
	</SchemaData></ExtendedData>
      <Point><coordinates>-3.62370251544854,40.3032185331108</coordinates></Point>
  </Placemark>
  <Placemark>
	<name>R-ALD-5</name>
	<description>Camino Aldehuela</description>
	<ExtendedData><SchemaData schemaUrl="#PRSKeys">
		<SimpleData name="fid">80</SimpleData>
		<SimpleData name="Id">222</SimpleData>
		<SimpleData name="Codigo">R-ALD-5</SimpleData>
		<SimpleData name="Nota">Camino Aldehuela</SimpleData>
		<SimpleData name="Observaciones">Parte 20260802 - Cadena, una con candado</SimpleData>
		<SimpleData name="Clave">R</SimpleData>
	</SchemaData></ExtendedData>
      <Point><coordinates>-3.6238096582918,40.303353094061</coordinates></Point>
  </Placemark>
  <Placemark>
	<name>R-CEU-2</name>
	<description>Caminos acceso al río</description>
	<ExtendedData><SchemaData schemaUrl="#PRSKeys">
		<SimpleData name="fid">81</SimpleData>
		<SimpleData name="Id">219</SimpleData>
		<SimpleData name="Codigo">R-CEU-2</SimpleData>
		<SimpleData name="Nota">Camino acceso al río</SimpleData>
		<SimpleData name="Observaciones">Parte 20260802 - Con candado</SimpleData>
		<SimpleData name="Clave">R</SimpleData>
	</SchemaData></ExtendedData>
      <Point><coordinates>-3.53724191949274,40.3261394202862</coordinates></Point>
  </Placemark>
  <Placemark>
	<name>R-CEU-3</name>
	<description>Caminos acceso al río</description>
	<ExtendedData><SchemaData schemaUrl="#PRSKeys">
		<SimpleData name="fid">82</SimpleData>
		<SimpleData name="Id">220</SimpleData>
		<SimpleData name="Codigo">R-CEU-3</SimpleData>
		<SimpleData name="Nota">Camino acceso al río</SimpleData>
		<SimpleData name="Observaciones">Parte 20260802 - Con candado</SimpleData>
		<SimpleData name="Clave">R</SimpleData>
	</SchemaData></ExtendedData>
      <Point><coordinates>-3.53174339469675,40.3259666234487</coordinates></Point>
  </Placemark>
  <Placemark>
	<name>R-VED-4</name>
	<description>El Vedadillo</description>
	<ExtendedData><SchemaData schemaUrl="#PRSKeys">
		<SimpleData name="fid">83</SimpleData>
		<SimpleData name="Id">217</SimpleData>
		<SimpleData name="Codigo">R-VED-4</SimpleData>
		<SimpleData name="Nota">El Vedadillo</SimpleData>
		<SimpleData name="Observaciones">Parte 20260731 - Portones con candado</SimpleData>
		<SimpleData name="Clave">R</SimpleData>
	</SchemaData></ExtendedData>
      <Point><coordinates>-3.55681667523656,40.1581485342943</coordinates></Point>
  </Placemark>
  <Placemark>
	<name>R-SOT-1</name>
	<description>Acceso explotación minera, el Sotillo</description>
	<ExtendedData><SchemaData schemaUrl="#PRSKeys">
		<SimpleData name="fid">84</SimpleData>
		<SimpleData name="Id">218</SimpleData>
		<SimpleData name="Codigo">R-SOT-1</SimpleData>
		<SimpleData name="Nota">Acceso explotación minera, el Sotillo</SimpleData>
		<SimpleData name="Observaciones">Parte 20260802 - Barrera</SimpleData>
		<SimpleData name="Clave">R</SimpleData>
	</SchemaData></ExtendedData>
      <Point><coordinates>-3.57995597736634,40.1396736026943</coordinates></Point>
  </Placemark>
  <Placemark>
	<name>P-MAS-1</name>
	<description>Acceso Campillo por Maspalomas</description>
	<ExtendedData><SchemaData schemaUrl="#PRSKeys">
		<SimpleData name="fid">85</SimpleData>
		<SimpleData name="Codigo">P-MAS-1</SimpleData>
		<SimpleData name="Nota">Acceso Campillo por Maspalomas</SimpleData>
		<SimpleData name="Observaciones">Rotulada como Maspalomas en llaveros</SimpleData>
		<SimpleData name="Clave">P</SimpleData>
	</SchemaData></ExtendedData>
      <Point><coordinates>-3.51478110452848,40.3220353025197</coordinates></Point>
  </Placemark>
  <Placemark>
	<name>R-SFE-2</name>
	<description>Acceso casas de San Félix</description>
	<ExtendedData><SchemaData schemaUrl="#PRSKeys">
		<SimpleData name="fid">86</SimpleData>
		<SimpleData name="Id">223</SimpleData>
		<SimpleData name="Codigo">R-SFE-2</SimpleData>
		<SimpleData name="Nota">Acceso casas de San Félix</SimpleData>
		<SimpleData name="Observaciones">Parte 20260806 - Candado</SimpleData>
		<SimpleData name="Clave">R</SimpleData>
	</SchemaData></ExtendedData>
      <Point><coordinates>-3.65875732697867,40.2729513456268</coordinates></Point>
  </Placemark>
  <Placemark>
	<name>R-PPI-1</name>
	<description>Acceso al Puente de Pindoque</description>
	<ExtendedData><SchemaData schemaUrl="#PRSKeys">
		<SimpleData name="fid">87</SimpleData>
		<SimpleData name="Id">224</SimpleData>
		<SimpleData name="Codigo">R-PPI-1</SimpleData>
		<SimpleData name="Nota">Acceso al Puente de Pindoque</SimpleData>
		<SimpleData name="Observaciones">Parte 20260810</SimpleData>
		<SimpleData name="Clave">R</SimpleData>
	</SchemaData></ExtendedData>
      <Point><coordinates>-3.54624169021926,40.2641224731315</coordinates></Point>
  </Placemark>
  <Placemark>
	<name>R-PPI-2</name>
	<description>Acceso al Puente de Pindoque</description>
	<ExtendedData><SchemaData schemaUrl="#PRSKeys">
		<SimpleData name="fid">88</SimpleData>
		<SimpleData name="Id">225</SimpleData>
		<SimpleData name="Codigo">R-PPI-2</SimpleData>
		<SimpleData name="Nota">Acceso al Puente de Pindoque</SimpleData>
		<SimpleData name="Observaciones">Parte 20260810</SimpleData>
		<SimpleData name="Clave">R</SimpleData>
	</SchemaData></ExtendedData>
      <Point><coordinates>-3.54487921726492,40.2614080805008</coordinates></Point>
  </Placemark>
</Folder>
</Document></kml>
